 {"type" : "FeatureCollection", "features" : [{"type": "Feature", "geometry": {"type":"Point","coordinates":[5.269977,45.10821]}, "id": "node/13288728180", "properties": {"name": "Au Matrere", "gtfs:stop_name:FR-ARA-C38": "Au Matrere", "gtfs:stop_id:FR-ARA-C38": "11545"}}, {"type": "Feature", "geometry": {"type":"Point","coordinates":[5.270019,45.108143]}, "id": "node/13288728181", "properties": {"name": "Au Matrere", "gtfs:stop_name:FR-ARA-C38": "Au Matrere", "gtfs:stop_id:FR-ARA-C38": "11544"}}, {"type": "Feature", "geometry": {"type":"Point","coordinates":[5.778625,44.951588]}, "id": "node/13288728182", "properties": {"name": "Arrêt Sud", "gtfs:stop_name:FR-ARA-C38": "Arrêt Sud", "gtfs:stop_id:FR-ARA-C38": "10773"}}, {"type": "Feature", "geometry": {"type":"Point","coordinates":[5.778656,44.95204]}, "id": "node/13288728183", "properties": {"name": "Arrêt Sud", "gtfs:stop_name:FR-ARA-C38": "Arrêt Sud", "gtfs:stop_id:FR-ARA-C38": "10772"}}, {"type": "Feature", "geometry": {"type":"Point","coordinates":[5.793991,44.945229]}, "id": "node/13288728184", "properties": {"name": "Ancienne Maternelle", "gtfs:stop_name:FR-ARA-C38": "Ancienne Maternelle", "gtfs:stop_id:FR-ARA-C38": "10796"}}, {"type": "Feature", "geometry": {"type":"Point","coordinates":[5.793895,44.945206]}, "id": "node/13288728185", "properties": {"name": "Ancienne Maternelle", "gtfs:stop_name:FR-ARA-C38": "Ancienne Maternelle", "gtfs:stop_id:FR-ARA-C38": "10797"}}, {"type": "Feature", "geometry": {"type":"Point","coordinates":[5.771357,45.438391]}, "id": "node/13288728186", "properties": {"name": "Ancienne Ecole", "gtfs:stop_name:FR-ARA-C38": "Ancienne Ecole", "gtfs:stop_id:FR-ARA-C38": "20499"}}, {"type": "Feature", "geometry": {"type":"Point","coordinates":[5.771518,45.438454]}, "id": "node/13288728187", "properties": {"name": "Ancienne Ecole", "gtfs:stop_name:FR-ARA-C38": "Ancienne Ecole", "gtfs:stop_id:FR-ARA-C38": "20498"}}, {"type": "Feature", "geometry": {"type":"Point","coordinates":[5.75895,45.407279]}, "id": "node/13288728188", "properties": {"name": "Aiguenoire", "gtfs:stop_name:FR-ARA-C38": "Aiguenoire", "gtfs:stop_id:FR-ARA-C38": "16278"}}, {"type": "Feature", "geometry": {"type":"Point","coordinates":[5.758963,45.407201]}, "id": "node/13288728189", "properties": {"name": "Aiguenoire", "gtfs:stop_name:FR-ARA-C38": "Aiguenoire", "gtfs:stop_id:FR-ARA-C38": "16279"}}, {"type": "Feature", "geometry": {"type":"Point","coordinates":[5.328873,45.071355]}, "id": "node/13301269864", "properties": {"name": "Balai", "gtfs:stop_name:FR-ARA-C38": "Balai", "gtfs:stop_id:FR-ARA-C38": "11127"}}, {"type": "Feature", "geometry": {"type":"Point","coordinates":[5.700974,44.769912]}, "id": "node/13301269865", "properties": {"name": "Avers", "gtfs:stop_name:FR-ARA-C38": "Avers", "gtfs:stop_id:FR-ARA-C38": "10042"}}, {"type": "Feature", "geometry": {"type":"Point","coordinates":[5.700617,44.769893]}, "id": "node/13301269866", "properties": {"name": "Avers", "gtfs:stop_name:FR-ARA-C38": "Avers", "gtfs:stop_id:FR-ARA-C38": "10043"}}, {"type": "Feature", "geometry": {"type":"Point","coordinates":[5.309551,45.135363]}, "id": "node/13301269867", "properties": {"name": "Avant Carrefour Seillère", "gtfs:stop_name:FR-ARA-C38": "Avant Carrefour Seillère", "gtfs:stop_id:FR-ARA-C38": "11532"}}, {"type": "Feature", "geometry": {"type":"Point","coordinates":[5.309618,45.135418]}, "id": "node/13301269868", "properties": {"name": "Avant Carrefour Seillère", "gtfs:stop_name:FR-ARA-C38": "Avant Carrefour Seillère", "gtfs:stop_id:FR-ARA-C38": "11533"}}, {"type": "Feature", "geometry": {"type":"Point","coordinates":[5.211972,45.09097]}, "id": "node/13301269869", "properties": {"name": "Aux Vallins", "gtfs:stop_name:FR-ARA-C38": "Aux Vallins", "gtfs:stop_id:FR-ARA-C38": "11032"}}, {"type": "Feature", "geometry": {"type":"Point","coordinates":[5.212036,45.091054]}, "id": "node/13301269870", "properties": {"name": "Aux Vallins", "gtfs:stop_name:FR-ARA-C38": "Aux Vallins", "gtfs:stop_id:FR-ARA-C38": "11033"}}, {"type": "Feature", "geometry": {"type":"Point","coordinates":[5.399906,45.115489]}, "id": "node/13301269871", "properties": {"name": "Auberge du Faz", "gtfs:stop_name:FR-ARA-C38": "Auberge du Faz", "gtfs:stop_id:FR-ARA-C38": "11608"}}, {"type": "Feature", "geometry": {"type":"Point","coordinates":[5.717627,44.834125]}, "id": "node/13301269872", "properties": {"name": "Aubépin", "gtfs:stop_name:FR-ARA-C38": "Aubépin", "gtfs:stop_id:FR-ARA-C38": "10177"}}, {"type": "Feature", "geometry": {"type":"Point","coordinates":[5.717535,44.834156]}, "id": "node/13301269873", "properties": {"name": "Aubépin", "gtfs:stop_name:FR-ARA-C38": "Aubépin", "gtfs:stop_id:FR-ARA-C38": "10176"}}, {"type": "Feature", "geometry": {"type":"Point","coordinates":[5.719786,44.950505]}, "id": "node/13313701936", "properties": {"name": "Bayardière", "gtfs:stop_name:FR-ARA-C38": "Bayardière", "gtfs:stop_id:FR-ARA-C38": "10722"}}, {"type": "Feature", "geometry": {"type":"Point","coordinates":[5.873677,44.834166]}, "id": "node/13313701937", "properties": {"name": "Bas-Quet", "gtfs:stop_name:FR-ARA-C38": "Bas-Quet", "gtfs:stop_id:FR-ARA-C38": "10239"}}, {"type": "Feature", "geometry": {"type":"Point","coordinates":[5.310105,45.12745]}, "id": "node/13313701938", "properties": {"name": "Bas Gervan", "gtfs:stop_name:FR-ARA-C38": "Bas Gervan", "gtfs:stop_id:FR-ARA-C38": "11517"}}, {"type": "Feature", "geometry": {"type":"Point","coordinates":[5.310165,45.127391]}, "id": "node/13313701939", "properties": {"name": "Bas Gervan", "gtfs:stop_name:FR-ARA-C38": "Bas Gervan", "gtfs:stop_id:FR-ARA-C38": "11516"}}, {"type": "Feature", "geometry": {"type":"Point","coordinates":[5.247151,45.071745]}, "id": "node/13313701940", "properties": {"name": "Barrière", "gtfs:stop_name:FR-ARA-C38": "Barrière", "gtfs:stop_id:FR-ARA-C38": "11029"}}, {"type": "Feature", "geometry": {"type":"Point","coordinates":[5.247072,45.071772]}, "id": "node/13313701941", "properties": {"name": "Barrière", "gtfs:stop_name:FR-ARA-C38": "Barrière", "gtfs:stop_id:FR-ARA-C38": "11028"}}, {"type": "Feature", "geometry": {"type":"Point","coordinates":[5.323365,45.124194]}, "id": "node/13313701942", "properties": {"name": "Barrage de Beauvoir", "gtfs:stop_name:FR-ARA-C38": "Barrage de Beauvoir", "gtfs:stop_id:FR-ARA-C38": "11576"}}, {"type": "Feature", "geometry": {"type":"Point","coordinates":[5.467863,45.088124]}, "id": "node/13313701943", "properties": {"name": "Balme Maternelle", "gtfs:stop_name:FR-ARA-C38": "Balme Maternelle", "gtfs:stop_id:FR-ARA-C38": "11627"}}, {"type": "Feature", "geometry": {"type":"Point","coordinates":[5.467817,45.088188]}, "id": "node/13313701944", "properties": {"name": "Balme Maternelle", "gtfs:stop_name:FR-ARA-C38": "Balme Maternelle", "gtfs:stop_id:FR-ARA-C38": "11626"}}, {"type": "Feature", "geometry": {"type":"Point","coordinates":[5.328908,45.071359]}, "id": "node/13313739490", "properties": {"name": "Balai", "gtfs:stop_name:FR-ARA-C38": "Balai", "gtfs:stop_id:FR-ARA-C38": "11126"}}, {"type": "Feature", "geometry": {"type":"Point","coordinates":[5.460286,45.208818]}, "id": "node/13347769776", "properties": {"name": "Caminière", "gtfs:stop_name:FR-ARA-C38": "Caminière", "gtfs:stop_id:FR-ARA-C38": "12664"}}, {"type": "Feature", "geometry": {"type":"Point","coordinates":[5.339303,45.323554]}, "id": "node/13347769777", "properties": {"name": "Café Sauze (Bascule)", "gtfs:stop_name:FR-ARA-C38": "Café Sauze (Bascule)", "gtfs:stop_id:FR-ARA-C38": "13993"}}, {"type": "Feature", "geometry": {"type":"Point","coordinates":[5.339404,45.323546]}, "id": "node/13347769778", "properties": {"name": "Café Sauze (Bascule)", "gtfs:stop_name:FR-ARA-C38": "Café Sauze (Bascule)", "gtfs:stop_id:FR-ARA-C38": "13992"}}, {"type": "Feature", "geometry": {"type":"Point","coordinates":[5.377537,45.399473]}, "id": "node/13347769779", "properties": {"name": "Café Berlioz", "gtfs:stop_name:FR-ARA-C38": "Café Berlioz", "gtfs:stop_id:FR-ARA-C38": "15479"}}, {"type": "Feature", "geometry": {"type":"Point","coordinates":[5.377462,45.399533]}, "id": "node/13347769780", "properties": {"name": "Café Berlioz", "gtfs:stop_name:FR-ARA-C38": "Café Berlioz", "gtfs:stop_id:FR-ARA-C38": "15478"}}, {"type": "Feature", "geometry": {"type":"Point","coordinates":[5.356814,45.235604]}, "id": "node/13347769781", "properties": {"name": "Bruyères 3", "gtfs:stop_name:FR-ARA-C38": "Bruyères 3", "gtfs:stop_id:FR-ARA-C38": "13259"}}, {"type": "Feature", "geometry": {"type":"Point","coordinates":[5.356758,45.235593]}, "id": "node/13347769782", "properties": {"name": "Bruyères 3", "gtfs:stop_name:FR-ARA-C38": "Bruyères 3", "gtfs:stop_id:FR-ARA-C38": "13258"}}, {"type": "Feature", "geometry": {"type":"Point","coordinates":[5.356113,45.237015]}, "id": "node/13347769783", "properties": {"name": "Bruyères 2", "gtfs:stop_name:FR-ARA-C38": "Bruyères 2", "gtfs:stop_id:FR-ARA-C38": "13257"}}, {"type": "Feature", "geometry": {"type":"Point","coordinates":[5.35602,45.236984]}, "id": "node/13347769784", "properties": {"name": "Bruyères 2", "gtfs:stop_name:FR-ARA-C38": "Bruyères 2", "gtfs:stop_id:FR-ARA-C38": "13256"}}, {"type": "Feature", "geometry": {"type":"Point","coordinates":[6.084875,44.654713]}, "id": "node/13347769785", "properties": {"name": "Brutinel", "gtfs:stop_name:FR-ARA-C38": "Brutinel", "gtfs:stop_id:FR-ARA-C38": "10015"}}, {"type": "Feature", "geometry": {"type":"Point","coordinates":[6.084774,44.654823]}, "id": "node/13347769786", "properties": {"name": "Brutinel", "gtfs:stop_name:FR-ARA-C38": "Brutinel", "gtfs:stop_id:FR-ARA-C38": "10014"}}, {"type": "Feature", "geometry": {"type":"Point","coordinates":[5.372159,45.070065]}, "id": "node/13347769787", "properties": {"name": "Bournière", "gtfs:stop_name:FR-ARA-C38": "Bournière", "gtfs:stop_id:FR-ARA-C38": "11119"}}, {"type": "Feature", "geometry": {"type":"Point","coordinates":[5.372175,45.070081]}, "id": "node/13347769788", "properties": {"name": "Bournière", "gtfs:stop_name:FR-ARA-C38": "Bournière", "gtfs:stop_id:FR-ARA-C38": "11118"}}, {"type": "Feature", "geometry": {"type":"Point","coordinates":[5.407548,45.237993]}, "id": "node/13347769789", "properties": {"name": "Bourg", "gtfs:stop_name:FR-ARA-C38": "Bourg", "gtfs:stop_id:FR-ARA-C38": "13315"}}, {"type": "Feature", "geometry": {"type":"Point","coordinates":[5.407505,45.237985]}, "id": "node/13347769790", "properties": {"name": "Bourg", "gtfs:stop_name:FR-ARA-C38": "Bourg", "gtfs:stop_id:FR-ARA-C38": "13314"}}, {"type": "Feature", "geometry": {"type":"Point","coordinates":[5.473225,45.104067]}, "id": "node/13347769791", "properties": {"name": "Bourg", "gtfs:stop_name:FR-ARA-C38": "Bourg", "gtfs:stop_id:FR-ARA-C38": "11629"}}, {"type": "Feature", "geometry": {"type":"Point","coordinates":[5.473152,45.103975]}, "id": "node/13347769792", "properties": {"name": "Bourg", "gtfs:stop_name:FR-ARA-C38": "Bourg", "gtfs:stop_id:FR-ARA-C38": "11628"}}, {"type": "Feature", "geometry": {"type":"Point","coordinates":[5.362146,45.12146]}, "id": "node/13347769793", "properties": {"name": "Bourg", "gtfs:stop_name:FR-ARA-C38": "Bourg", "gtfs:stop_id:FR-ARA-C38": "11605"}}, {"type": "Feature", "geometry": {"type":"Point","coordinates":[5.382709,45.091926]}, "id": "node/13347769794", "properties": {"name": "Bourg", "gtfs:stop_name:FR-ARA-C38": "Bourg", "gtfs:stop_id:FR-ARA-C38": "11585"}}, {"type": "Feature", "geometry": {"type":"Point","coordinates":[5.382616,45.091955]}, "id": "node/13347769795", "properties": {"name": "Bourg", "gtfs:stop_name:FR-ARA-C38": "Bourg", "gtfs:stop_id:FR-ARA-C38": "11584"}}]}

