 {"type" : "FeatureCollection", "features" : [{"type": "Feature", "geometry": {"type":"Point","coordinates":[5.2699799,45.1082099]}, "id": "node/13288728180", "properties": {"name": "Au Matrere", "gtfs:stop_name:FR-ARA-C38": "Au Matrere", "gtfs:stop_id:FR-ARA-C38": "11545"}}, {"type": "Feature", "geometry": {"type":"Point","coordinates":[5.27002,45.1081399]}, "id": "node/13288728181", "properties": {"name": "Au Matrere", "gtfs:stop_name:FR-ARA-C38": "Au Matrere", "gtfs:stop_id:FR-ARA-C38": "11544"}}, {"type": "Feature", "geometry": {"type":"Point","coordinates":[5.77863,44.95159]}, "id": "node/13288728182", "properties": {"name": "Arret Sud", "gtfs:stop_name:FR-ARA-C38": "Arret Sud", "gtfs:stop_id:FR-ARA-C38": "10773"}}, {"type": "Feature", "geometry": {"type":"Point","coordinates":[5.77866,44.95204]}, "id": "node/13288728183", "properties": {"name": "Arret Sud", "gtfs:stop_name:FR-ARA-C38": "Arret Sud", "gtfs:stop_id:FR-ARA-C38": "10772"}}, {"type": "Feature", "geometry": {"type":"Point","coordinates":[5.79399,44.9452299]}, "id": "node/13288728184", "properties": {"name": "Ancienne Maternelle", "gtfs:stop_name:FR-ARA-C38": "Ancienne Maternelle", "gtfs:stop_id:FR-ARA-C38": "10796"}}, {"type": "Feature", "geometry": {"type":"Point","coordinates":[5.7939,44.94521]}, "id": "node/13288728185", "properties": {"name": "Ancienne Maternelle", "gtfs:stop_name:FR-ARA-C38": "Ancienne Maternelle", "gtfs:stop_id:FR-ARA-C38": "10797"}}, {"type": "Feature", "geometry": {"type":"Point","coordinates":[5.77136,45.4383899]}, "id": "node/13288728186", "properties": {"name": "Ancienne Ecole", "gtfs:stop_name:FR-ARA-C38": "Ancienne Ecole", "gtfs:stop_id:FR-ARA-C38": "20499"}}, {"type": "Feature", "geometry": {"type":"Point","coordinates":[5.77152,45.4384499]}, "id": "node/13288728187", "properties": {"name": "Ancienne Ecole", "gtfs:stop_name:FR-ARA-C38": "Ancienne Ecole", "gtfs:stop_id:FR-ARA-C38": "20498"}}, {"type": "Feature", "geometry": {"type":"Point","coordinates":[5.75895,45.4072799]}, "id": "node/13288728188", "properties": {"name": "Aiguenoire", "gtfs:stop_name:FR-ARA-C38": "Aiguenoire", "gtfs:stop_id:FR-ARA-C38": "16278"}}, {"type": "Feature", "geometry": {"type":"Point","coordinates":[5.75896,45.4072]}, "id": "node/13288728189", "properties": {"name": "Aiguenoire", "gtfs:stop_name:FR-ARA-C38": "Aiguenoire", "gtfs:stop_id:FR-ARA-C38": "16279"}}, {"type": "Feature", "geometry": {"type":"Point","coordinates":[5.32887,45.0713599]}, "id": "node/13301269864", "properties": {"name": "Balai", "gtfs:stop_name:FR-ARA-C38": "Balai", "gtfs:stop_id:FR-ARA-C38": "11127"}}, {"type": "Feature", "geometry": {"type":"Point","coordinates":[5.70097,44.7699099]}, "id": "node/13301269865", "properties": {"name": "Avers", "gtfs:stop_name:FR-ARA-C38": "Avers", "gtfs:stop_id:FR-ARA-C38": "10042"}}, {"type": "Feature", "geometry": {"type":"Point","coordinates":[5.70062,44.7698899]}, "id": "node/13301269866", "properties": {"name": "Avers", "gtfs:stop_name:FR-ARA-C38": "Avers", "gtfs:stop_id:FR-ARA-C38": "10043"}}, {"type": "Feature", "geometry": {"type":"Point","coordinates":[5.3095499,45.1353599]}, "id": "node/13301269867", "properties": {"name": "Avant Carref.Seillere", "gtfs:stop_name:FR-ARA-C38": "Avant Carref.Seillere", "gtfs:stop_id:FR-ARA-C38": "11532"}}, {"type": "Feature", "geometry": {"type":"Point","coordinates":[5.3096199,45.13542]}, "id": "node/13301269868", "properties": {"name": "Avant Carref.Seillere", "gtfs:stop_name:FR-ARA-C38": "Avant Carref.Seillere", "gtfs:stop_id:FR-ARA-C38": "11533"}}, {"type": "Feature", "geometry": {"type":"Point","coordinates":[5.2119699,45.0909699]}, "id": "node/13301269869", "properties": {"name": "Aux Vallins", "gtfs:stop_name:FR-ARA-C38": "Aux Vallins", "gtfs:stop_id:FR-ARA-C38": "11032"}}, {"type": "Feature", "geometry": {"type":"Point","coordinates":[5.21204,45.0910499]}, "id": "node/13301269870", "properties": {"name": "Aux Vallins", "gtfs:stop_name:FR-ARA-C38": "Aux Vallins", "gtfs:stop_id:FR-ARA-C38": "11033"}}, {"type": "Feature", "geometry": {"type":"Point","coordinates":[5.39991,45.1154899]}, "id": "node/13301269871", "properties": {"name": "Auberge Du Faz", "gtfs:stop_name:FR-ARA-C38": "Auberge Du Faz", "gtfs:stop_id:FR-ARA-C38": "11608"}}, {"type": "Feature", "geometry": {"type":"Point","coordinates":[5.71763,44.8341299]}, "id": "node/13301269872", "properties": {"name": "Aubepin", "gtfs:stop_name:FR-ARA-C38": "Aubepin", "gtfs:stop_id:FR-ARA-C38": "10177"}}, {"type": "Feature", "geometry": {"type":"Point","coordinates":[5.71754,44.83416]}, "id": "node/13301269873", "properties": {"name": "Aubepin", "gtfs:stop_name:FR-ARA-C38": "Aubepin", "gtfs:stop_id:FR-ARA-C38": "10176"}}, {"type": "Feature", "geometry": {"type":"Point","coordinates":[5.71979,44.9505099]}, "id": "node/13313701936", "properties": {"name": "Bayardiere", "gtfs:stop_name:FR-ARA-C38": "Bayardiere", "gtfs:stop_id:FR-ARA-C38": "10722"}}, {"type": "Feature", "geometry": {"type":"Point","coordinates":[5.8736799,44.83417]}, "id": "node/13313701937", "properties": {"name": "Bas-Quet", "gtfs:stop_name:FR-ARA-C38": "Bas-Quet", "gtfs:stop_id:FR-ARA-C38": "10239"}}, {"type": "Feature", "geometry": {"type":"Point","coordinates":[5.3101099,45.1274499]}, "id": "node/13313701938", "properties": {"name": "Bas Gervan", "gtfs:stop_name:FR-ARA-C38": "Bas Gervan", "gtfs:stop_id:FR-ARA-C38": "11517"}}, {"type": "Feature", "geometry": {"type":"Point","coordinates":[5.3101699,45.12739]}, "id": "node/13313701939", "properties": {"name": "Bas Gervan", "gtfs:stop_name:FR-ARA-C38": "Bas Gervan", "gtfs:stop_id:FR-ARA-C38": "11516"}}, {"type": "Feature", "geometry": {"type":"Point","coordinates":[5.24715,45.07175]}, "id": "node/13313701940", "properties": {"name": "Barriere", "gtfs:stop_name:FR-ARA-C38": "Barriere", "gtfs:stop_id:FR-ARA-C38": "11029"}}, {"type": "Feature", "geometry": {"type":"Point","coordinates":[5.24707,45.0717699]}, "id": "node/13313701941", "properties": {"name": "Barriere", "gtfs:stop_name:FR-ARA-C38": "Barriere", "gtfs:stop_id:FR-ARA-C38": "11028"}}, {"type": "Feature", "geometry": {"type":"Point","coordinates":[5.3233699,45.12419]}, "id": "node/13313701942", "properties": {"name": "Barrage De Beauvoir", "gtfs:stop_name:FR-ARA-C38": "Barrage De Beauvoir", "gtfs:stop_id:FR-ARA-C38": "11576"}}, {"type": "Feature", "geometry": {"type":"Point","coordinates":[5.46786,45.08812]}, "id": "node/13313701943", "properties": {"name": "Balme Maternelle", "gtfs:stop_name:FR-ARA-C38": "Balme Maternelle", "gtfs:stop_id:FR-ARA-C38": "11627"}}, {"type": "Feature", "geometry": {"type":"Point","coordinates":[5.4678199,45.0881899]}, "id": "node/13313701944", "properties": {"name": "Balme Maternelle", "gtfs:stop_name:FR-ARA-C38": "Balme Maternelle", "gtfs:stop_id:FR-ARA-C38": "11626"}}, {"type": "Feature", "geometry": {"type":"Point","coordinates":[5.32891,45.0713599]}, "id": "node/13313739490", "properties": {"name": "Balai", "gtfs:stop_name:FR-ARA-C38": "Balai", "gtfs:stop_id:FR-ARA-C38": "11126"}}, {"type": "Feature", "geometry": {"type":"Point","coordinates":[5.46029,45.2088199]}, "id": "node/13347769776", "properties": {"name": "Caminiere", "gtfs:stop_name:FR-ARA-C38": "Caminiere", "gtfs:stop_id:FR-ARA-C38": "12664"}}, {"type": "Feature", "geometry": {"type":"Point","coordinates":[5.3392999,45.32355]}, "id": "node/13347769777", "properties": {"name": "Cafe Sauze(Bascule)", "gtfs:stop_name:FR-ARA-C38": "Cafe Sauze(Bascule)", "gtfs:stop_id:FR-ARA-C38": "13993"}}, {"type": "Feature", "geometry": {"type":"Point","coordinates":[5.3393999,45.32355]}, "id": "node/13347769778", "properties": {"name": "Cafe Sauze(Bascule)", "gtfs:stop_name:FR-ARA-C38": "Cafe Sauze(Bascule)", "gtfs:stop_id:FR-ARA-C38": "13992"}}, {"type": "Feature", "geometry": {"type":"Point","coordinates":[5.37754,45.39947]}, "id": "node/13347769779", "properties": {"name": "Cafe Berlioz", "gtfs:stop_name:FR-ARA-C38": "Cafe Berlioz", "gtfs:stop_id:FR-ARA-C38": "15479"}}, {"type": "Feature", "geometry": {"type":"Point","coordinates":[5.37746,45.3995299]}, "id": "node/13347769780", "properties": {"name": "Cafe Berlioz", "gtfs:stop_name:FR-ARA-C38": "Cafe Berlioz", "gtfs:stop_id:FR-ARA-C38": "15478"}}, {"type": "Feature", "geometry": {"type":"Point","coordinates":[5.35681,45.2355999]}, "id": "node/13347769781", "properties": {"name": "Bruyeres 3", "gtfs:stop_name:FR-ARA-C38": "Bruyeres 3", "gtfs:stop_id:FR-ARA-C38": "13259"}}, {"type": "Feature", "geometry": {"type":"Point","coordinates":[5.35676,45.2355899]}, "id": "node/13347769782", "properties": {"name": "Bruyeres 3", "gtfs:stop_name:FR-ARA-C38": "Bruyeres 3", "gtfs:stop_id:FR-ARA-C38": "13258"}}, {"type": "Feature", "geometry": {"type":"Point","coordinates":[5.35611,45.2370199]}, "id": "node/13347769783", "properties": {"name": "Bruyeres 2", "gtfs:stop_name:FR-ARA-C38": "Bruyeres 2", "gtfs:stop_id:FR-ARA-C38": "13257"}}, {"type": "Feature", "geometry": {"type":"Point","coordinates":[5.3560199,45.2369799]}, "id": "node/13347769784", "properties": {"name": "Bruyeres 2", "gtfs:stop_name:FR-ARA-C38": "Bruyeres 2", "gtfs:stop_id:FR-ARA-C38": "13256"}}, {"type": "Feature", "geometry": {"type":"Point","coordinates":[6.08488,44.6547099]}, "id": "node/13347769785", "properties": {"name": "Brutinel", "gtfs:stop_name:FR-ARA-C38": "Brutinel", "gtfs:stop_id:FR-ARA-C38": "10015"}}, {"type": "Feature", "geometry": {"type":"Point","coordinates":[6.08477,44.65482]}, "id": "node/13347769786", "properties": {"name": "Brutinel", "gtfs:stop_name:FR-ARA-C38": "Brutinel", "gtfs:stop_id:FR-ARA-C38": "10014"}}, {"type": "Feature", "geometry": {"type":"Point","coordinates":[5.37216,45.07007]}, "id": "node/13347769787", "properties": {"name": "Bourniere", "gtfs:stop_name:FR-ARA-C38": "Bourniere", "gtfs:stop_id:FR-ARA-C38": "11119"}}, {"type": "Feature", "geometry": {"type":"Point","coordinates":[5.37218,45.07008]}, "id": "node/13347769788", "properties": {"name": "Bourniere", "gtfs:stop_name:FR-ARA-C38": "Bourniere", "gtfs:stop_id:FR-ARA-C38": "11118"}}, {"type": "Feature", "geometry": {"type":"Point","coordinates":[5.40755,45.23799]}, "id": "node/13347769789", "properties": {"name": "Bourg", "gtfs:stop_name:FR-ARA-C38": "Bourg", "gtfs:stop_id:FR-ARA-C38": "13315"}}, {"type": "Feature", "geometry": {"type":"Point","coordinates":[5.4075099,45.23799]}, "id": "node/13347769790", "properties": {"name": "Bourg", "gtfs:stop_name:FR-ARA-C38": "Bourg", "gtfs:stop_id:FR-ARA-C38": "13314"}}, {"type": "Feature", "geometry": {"type":"Point","coordinates":[5.4732299,45.1040699]}, "id": "node/13347769791", "properties": {"name": "Bourg", "gtfs:stop_name:FR-ARA-C38": "Bourg", "gtfs:stop_id:FR-ARA-C38": "11629"}}, {"type": "Feature", "geometry": {"type":"Point","coordinates":[5.4731499,45.1039799]}, "id": "node/13347769792", "properties": {"name": "Bourg", "gtfs:stop_name:FR-ARA-C38": "Bourg", "gtfs:stop_id:FR-ARA-C38": "11628"}}, {"type": "Feature", "geometry": {"type":"Point","coordinates":[5.36215,45.12146]}, "id": "node/13347769793", "properties": {"name": "Bourg", "gtfs:stop_name:FR-ARA-C38": "Bourg", "gtfs:stop_id:FR-ARA-C38": "11605"}}, {"type": "Feature", "geometry": {"type":"Point","coordinates":[5.38271,45.0919299]}, "id": "node/13347769794", "properties": {"name": "Bourg", "gtfs:stop_name:FR-ARA-C38": "Bourg", "gtfs:stop_id:FR-ARA-C38": "11585"}}, {"type": "Feature", "geometry": {"type":"Point","coordinates":[5.3826199,45.0919599]}, "id": "node/13347769795", "properties": {"name": "Bourg", "gtfs:stop_name:FR-ARA-C38": "Bourg", "gtfs:stop_id:FR-ARA-C38": "11584"}}]}

